STARLINK-2022           
1 47643U 21012Z   24119.56392511  .00003817  00000+0  27537-3 0  9994
2 47643  53.0529 224.8188 0001640 110.3965 249.7200 15.06351839177751
